[{"name":"120 Tillson Farm (Mail and Print Services)","address":"120 TILLSON FARM RD","zip":"01003-9346"},{"name":"400 Venture Way","address":"400 VENTURE WAY (suites 101-235) Hadley MA","zip":"01035-6903"},{"name":"Agricultural Engineering Bldg","address":"250 NATURAL RESOURCES RD","zip":"01003-9295"},{"name":"Agricultural Experiment Station","address":"160 TILLSON FARM RD","zip":"01003-9346"},{"name":"Army ROTC Bldg","address":"101 COMMONWEALTH AVE","zip":"01003-9252"},{"name":"Arnold House","address":"715 N PLEASANT","zip":"01003-9304"},{"name":"Auxiliary Services Warehouse","address":"31 COLD STORAGE DR","zip":"01003-9344"},{"name":"Baker House (offices)","address":"160 CLARK HILL RD OFC","zip":"01003-9321"},{"name":"Bartlett Hall","address":"130 HICKS WAY","zip":"01003-9269"},{"name":"Berkshire House","address":"121 COUNTY CIR","zip":"01003-9256"},{"name":"Berkshire Dining Common","address":"121 SOUTHWEST CIR","zip":"01003-9314"},{"name":"Blaisdell","address":"113 GRINNELL WAY","zip":"01003-9367"},{"name":"Boulder House Mt Ida Campus","address":"97 CARLSON AVE NEWTON MA","zip":"02459-3307"},{"name":"Bowditch Hall","address":"201 NATURAL RESOURCES RD","zip":"01003-9294"},{"name":"Bowditch Lodge","address":"31 CLUBHOUSE DR","zip":"01003-9250"},{"name":"Boyden","address":"131 COMMONWEALTH AVE","zip":"01003-9253"},{"name":"Brett (Offices)","address":"151 INFIRMARY WAY OFC","zip":"01003-9322"},{"name":"Campus Center","address":"1 CAMPUS CENTER WAY","zip":"01003-9243"},{"name":"Cance (offices)","address":"191 FEARING OFC","zip":"01003-9323"},{"name":"Central Heating Plant","address":"200 MULLINS WAY","zip":"01003-9352"},{"name":"Champions Center","address":"190 COMMONWEALTH AVE","zip":"01003-9398"},{"name":"Chancellor's House","address":"150 CHANCELLORS DR","zip":"01003-9249"},{"name":"Chenoweth Laboratory","address":"100 HOLDSWORTH WAY","zip":"01003-9282"},{"name":"Clark Hall","address":"251 STOCKBRIDGE RD","zip":"01003-9319"},{"name":"Commonwealth Honors College","address":"157 COMMONWEALTH AVE","zip":"01003-9253"},{"name":"Communication Disorders","address":"358 N PLEASANT ST","zip":"01003-9296"},{"name":"Computer Science Bldg","address":"140 GOVERNORS DR","zip":"01003-9264"},{"name":"Condensate Storage Building","address":"30 CAMPUS CENTER SERVICE RD","zip":"01003-9244"},{"name":"Conte Polymer Center","address":"120 GOVERNORS DR","zip":"01003-9263"},{"name":"Crotty Hall","address":"412 N PLEASANT ST","zip":"01002-2900"},{"name":"Curry Hicks","address":"100 HICKS WAY","zip":"01003-9267"},{"name":"Design Building  (Olver Design Building)","address":"551 N PLEASANT ST","zip":"01003-2901"},{"name":"Dickinson Hall","address":"155 HICKS WAY","zip":"01003-9363"},{"name":"Draper Hall","address":"40 CAMPUS CENTER WAY","zip":"01003-9244"},{"name":"East Experiment Station","address":"671 N PLEASANT ST","zip":"01003-9301"},{"name":"Engineering Laboratory","address":"160 GOVERNORS DR","zip":"01003-9265"},{"name":"Engineering Laboratory II (E Lab II)","address":"101 NORTH SERVICE RD","zip":"01003-9345"},{"name":"Faculty Club","address":"243 STOCKBRIDGE RD","zip":"01003-9317"},{"name":"Farley Lodge","address":"41 CLUBHOUSE DR","zip":"01003-9251"},{"name":"Fernald Hall","address":"270 STOCKBRIDGE RD","zip":"01003-9320"},{"name":"Fine Arts Center (East) Box Ofc, Music, Dance","address":"151 PRESIDENTS DR OFC 1","zip":"01003-9330"},{"name":"Fine Arts Center (West) Theatre","address":"151 PRESIDENTS DR OFC 2","zip":"01003-9331"},{"name":"Flint Laboratory","address":"90 CAMPUS CENTER WAY","zip":"01003-9247"},{"name":"Football Performance Center","address":"290 STADIUM DR","zip":"01003-9397"},{"name":"Franklin Dining Common","address":"260 STOCKBRIDGE RD","zip":"01003-9314"},{"name":"French Hall","address":"230 STOCKBRIDGE RD","zip":"01003-9316"},{"name":"Furcolo Hall","address":"813 N PLEASANT ST","zip":"01003-9308"},{"name":"Goessmann Laboratory","address":"686 N PLEASANT ST","zip":"01003-9303"},{"name":"Goodell Bldg","address":"140 HICKS WAY","zip":"01003-9272"},{"name":"Goodell Bldg (Graduate School)","address":"140 HICKS WAY OFC 1","zip":"01003-9333"},{"name":"Gordon Hall","address":"418 N PLEASANT ST","zip":"01002-1735"},{"name":"Gunness Lab","address":"121 NATURAL RESOURCES RD","zip":"01003"},{"name":"Hampden Dining Common","address":"131 SOUTHWEST CIR ","zip":"01003-9314"},{"name":"Hampshire Dining Common","address":"141 SOUTHWEST CIR","zip":"01003-9314"},{"name":"Hampshire House","address":"131 COUNTY CIR","zip":"01003-9257"},{"name":"Hasbrouck Laboratory","address":"666 N PLEASANT ST","zip":"01003-9300"},{"name":"Hatch Laboratory","address":"140 HOLDSWORTH WAY","zip":"01003-9283"},{"name":"Health Center (Univ Health Services)","address":"150 INFIRMARY WAY","zip":"01003-9288"},{"name":"Herter Hall","address":"161 PRESIDENTS DR","zip":"01003-9312"},{"name":"Hillel House","address":"388 NO PLEASANT ST #15","zip":"01002-1753"},{"name":"Holdsworth Hall","address":"160 HOLDSWORTH WAY","zip":"01003-9285"},{"name":"Institute for Holocaust","address":"758 N PLEASANT ST","zip":"01002-1310"},{"name":"Isenberg School of Management","address":"121 PRESIDENTS DR","zip":"01003-9310"},{"name":"Integrated Sciences Building","address":"661 N PLEASANT ST","zip":"01003-9301"},{"name":"Integrative Learning Center","address":"650 N PLEASANT ST","zip":"01003-1100"},{"name":"International Programs","address":"70 BUTTERFIELD TERR","zip":"01003-9242"},{"name":"John Quincy Adams Tower","address":"171 FEARING ST OFC","zip":"01003-9325"},{"name":"Johnson House (offices)","address":"380 THATCHER RD OFC","zip":"01003-9359"},{"name":"Knowles Engineering Bldg","address":"151 HOLDSWORTH WAY","zip":"01003-9284"},{"name":"Knowlton Hall (New StudentsOrientation & Parent Services)","address":"691 N PLEASANT ST OFC","zip":"01003-9399"},{"name":"Lederle Grad Research Ctr (LGRC lowrise)","address":"740 N PLEASANT ST","zip":"01003-9306"},{"name":"Lederle Grad Research Tower (LGRT)","address":"710 N PLEASANT ST","zip":"01003-9305"},{"name":"Life Science Laboratories","address":"240 THATCHER RD","zip":"01003-9364"},{"name":"Machmer Hall","address":"240 HICKS WAY","zip":"01003-9278"},{"name":"Marcus Hall","address":"100 NATURAL RESOURCES RD","zip":"01003-9292"},{"name":"Marston Hall","address":"130 NATURAL RESOURCES RD","zip":"01003-9293"},{"name":"Mass Ventures","address":"100 VENTURE WAY (HADLEY, MA)","zip":"01035-9462"},{"name":"Mather Building","address":"37 MATHER DR","zip":"01003-9291"},{"name":"Memorial Hall","address":"134 HICKS WAY","zip":"01003-9270"},{"name":"Middlesex House","address":"111 COUNTY CIR","zip":"01003-9255"},{"name":"Montague House","address":"809 N PLEASANT ST","zip":"01003-9307"},{"name":"Morrill 1","address":"637 N PLEASANT ST","zip":"01003-9298"},{"name":"Morrill 2","address":"627 N PLEASANT ST","zip":"01003-9354"},{"name":"Morrill 3","address":"611 N PLEASANT ST","zip":"01003-9297"},{"name":"Morrill 4","address":"639 N PLEASANT ST","zip":"01003-9298"},{"name":"Mount Ida Campus","address":"100 Carlson Avenue, Newton MA","zip":"02459-3310"},{"name":"Mullins Center","address":"200 COMMONWEALTH AVE","zip":"01003-9254"},{"name":"Munson Hall","address":"101 HICKS WAY","zip":"01003-9268"},{"name":"Nelson House","address":"513 EAST PLEASANT ST","zip":"01003-9260"},{"name":"Nelson House South","address":"505 EAST PLEASANT ST","zip":"01003-9259"},{"name":"New Africa House","address":"180 INFIRMARY WAY","zip":"01003-9289"},{"name":"Old Chapel","address":"144 HICKS WAY","zip":"01003-9273"},{"name":"Online Education UWW","address":"350 CAMPUS CENTER WAY","zip":"01003-2902"},{"name":"Paige Laboratory","address":"161 HOLDSWORTH WAY","zip":"01003-9286"},{"name":"Parking Office Trailer","address":"51 FORESTRY WAY","zip":"01003-9262"},{"name":"Parks Marching Band Building","address":"110 GRINNELL WAY","zip":"01003-9365"},{"name":"Photo Center","address":"211 HICKS WAY","zip":"01003-9372"},{"name":"Physical Plant","address":"360 CAMPUS CENTER WAY","zip":"01003-9248"},{"name":"Physical Sciences Building","address":"690 N PLEASANT ST","zip":"01003-9303"},{"name":"Police Station","address":"585 EAST PLEASANT ST","zip":"01003-9600"},{"name":"Recreation Center","address":"161 COMMONWEALTH AVE","zip":"01003-9253"},{"name":"Renaissance Center","address":"650 E PLEASANT ST","zip":"01002-1526"},{"name":"Robsham Visitor's Center","address":"300 MASSACHUSETTS AVE","zip":"01003-9290"},{"name":"Shade Trees Laboratory","address":"245 STOCKBRIDGE RD","zip":"01003-9318"},{"name":"Skinner Hall","address":"651 N PLEASANT ST","zip":"01003-9299"},{"name":"Slobody Bldg","address":"101 UNIVERSITY DR SUITE B","zip":"01002-2376"},{"name":"Slobody Bldg","address":"101 UNIVERSITY DR SUITE C","zip":"01002-2385"},{"name":"South College","address":"150 HICKS WAY","zip":"01003-9274"},{"name":"Stonewall Center","address":"256 SUNSET AVE OFC","zip":"01003-9232"},{"name":"Stockbridge Hall","address":"80 CAMPUS CENTER WAY","zip":"01003-9246"},{"name":"Student Union","address":"41 CAMPUS CENTER WAY","zip":"01003-9245"},{"name":"Studio Arts Building","address":"110 THATCHER RD","zip":"01003-9356"},{"name":"Thompson Hall","address":"200 HICKS WAY","zip":"01003-9277"},{"name":"Thoreau House (offices)","address":"640 MASSACHUSETTS AVE OFC","zip":"01003-9327"},{"name":"Tillson House","address":"23 TILLSON FARM RD","zip":"01003-9346"},{"name":"Tillson Farm","address":"151 TILLSON FARM RD","zip":"01003"},{"name":"Tobin Hall","address":"135 HICKS WAY","zip":"01003-9271"},{"name":"Toddler House","address":"21 CLUBHOUSE DR","zip":"01003-9343"},{"name":"Totman Bldg","address":"30 EASTMAN LN","zip":"01003-9258"},{"name":"University Bus Garage","address":"185 Holdsworth Way","zip":"01003-9286"},{"name":"University Press","address":"671 N PLEASANT ST","zip":"01003-9301"},{"name":"University Store","address":"1 CAMPUS CENTER WAY OFC","zip":"01003-9332"},{"name":"University Without Walls UWW, Online Ed","address":"350 Campus Center Way","zip":"01003-2902"},{"name":"W.E.B. Du Bois Library","address":"154 HICKS WAY","zip":"01003-9275"},{"name":"West Experiment Station","address":"682 N PLEASANT ST","zip":"01003-9302"},{"name":"Whitmore Bldg","address":"181 PRESIDENTS DR","zip":"01003-9313"},{"name":"Wilder Hall","address":"221 STOCKBRIDGE RD","zip":"01003-9315"},{"name":"Worcester Commons","address":"667 N PLEASANT ST","zip":"01003-9301"},{"name":"Wysocki House","address":"911 N PLEASANT ST","zip":"01003-9309"},{"name":"Baker Hall","address":"160 CLARK HILL RD","zip":"01003-9205"},{"name":"Birch Hall","address":"153 COMMONWEALTH AVE","zip":"01003-9253"},{"name":"Brett Hall","address":"151 INFIRMARY WAY","zip":"01003-9219"},{"name":"Brooks Hall","address":"160 INFIRMARY WAY","zip":"01003-9200"},{"name":"Brown Hall","address":"92 EASTMAN LN","zip":"01003-9210"},{"name":"Butterfield Hall","address":"171 CLARK HILL RD","zip":"01003-9206"},{"name":"Cance Hall","address":"191 FEARING ST","zip":"01003-9218"},{"name":"Cashin Hall","address":"112 EASTMAN LN","zip":"01003-9220"},{"name":"Chadbourne Hall","address":"110 ORCHARD HILL DR","zip":"01003-9207"},{"name":"Coolidge Hall","address":"630 MASSACHUSETTS AVE","zip":"01003-9239"},{"name":"Crabtree Hall","address":"17 EASTMAN LN","zip":"01003-9226"},{"name":"Crampton Hall","address":"256 SUNSET AVE","zip":"01003-9232"},{"name":"Dickinson Hall","address":"151 ORCHARD HILL DR","zip":"01003-9222"},{"name":"Dwight Hall","address":"41 EASTMAN LN","zip":"01003-9228"},{"name":"Elm Hall","address":"145 COMMONWEALTH AVE","zip":"01003-9253"},{"name":"Emerson Hall","address":"151 SOUTHWEST CIR","zip":"01003-9237"},{"name":"Field Hall","address":"171 ORCHARD HILL DR","zip":"01003-9225"},{"name":"Gorman Hall","address":"90 BUTTERFIELD TER","zip":"01003-9202"},{"name":"Grayson Hall","address":"161 ORCHARD HILL DR","zip":"01003-9221"},{"name":"Greenough Hall","address":"120 ORCHARD HILL DR","zip":"01003-9224"},{"name":"Hamlin Hall","address":"739 N PLEASANT ST","zip":"01003-9211"},{"name":"James Hall","address":"660 MASSACHUSETTS AVE","zip":"01003-9217"},{"name":"John Adams Hall","address":"161 FEARING ST","zip":"01003-9234"},{"name":"John Quincy Adams Hall","address":"171 FEARING ST","zip":"01003-9235"},{"name":"Johnson Hall","address":"380 THATCHER RD","zip":"01003-9359"},{"name":"Kennedy Hall","address":"620 MASSACHUSETTS AVE","zip":"01003-9238"},{"name":"Knowlton Hall","address":"691 N PLEASANT ST","zip":"01003-9212"},{"name":"Leach Hall","address":"21 EASTMAN LN","zip":"01003-9227"},{"name":"Lewis Hall","address":"340 THATCHER RD","zip":"01003-9359"},{"name":"Lincoln Apts CLOSED","address":"345 LINCOLN AVE","zip":"01003-9373"},{"name":"Linden Hall","address":"141 COMMONWEALTH AVE","zip":"01003-9253"},{"name":"Mackimmie Hall","address":"230 SUNSET AVE","zip":"01003-9231"},{"name":"Maple Hall","address":"151 COMMONWEALTH AVE","zip":"01003-9253"},{"name":"Mary Lyon Hall","address":"43 EASTMAN LN","zip":"01003-9208"},{"name":"McNamara Hall","address":"102 EASTMAN LN","zip":"01003-9203"},{"name":"Melville Hall","address":"650 MASSACHUSETTS AVE","zip":"01003-9241"},{"name":"Moore Hall","address":"111 SOUTHWEST CIR","zip":"01003-9216"},{"name":"North Residence A","address":"56 EASTMAN LN","zip":"01003-9350"},{"name":"North Residence B","address":"58 EASTMAN LN","zip":"01003-9351"},{"name":"North Residence C","address":"54 EASTMAN LN","zip":"01003-9349"},{"name":"North Residence D","address":"52 EASTMAN LN","zip":"01003-9348"},{"name":"North Village Apts.CLOSED","address":"990 N PLEASANT ST","zip":"01002"},{"name":"Oak Hall","address":"143 COMMONWEALTH AVE","zip":"01003-9253"},{"name":"Patterson Hall","address":"204 SUNSET AVE","zip":"01003-9213"},{"name":"Pierpont Hall","address":"201 FEARING ST","zip":"01003-9215"},{"name":"Prince Hall","address":"286 SUNSET AVE","zip":"01003-9233"},{"name":"Sycamore Hall","address":"159 COMMONWEALTH AVE","zip":"01003-9253"},{"name":"Thatcher Hall","address":"300 THATCHER RD","zip":"01003-9359"},{"name":"Thoreau Hall","address":"640 MASSACHUSETTS AVE","zip":"01003-9240"},{"name":"Van Meter Hall","address":"180 CLARK HILL RD","zip":"01003-9223"},{"name":"Washington Hall","address":"181 FEARING ST","zip":"01003-9236"},{"name":"Webster Hall","address":"141 ORCHARD HILL DR","zip":"01003-9204"},{"name":"Wheeler Hall","address":"171 INFIRMARY WAY","zip":"01003-9201"}]